LEMUR-2-STARLIGHT       
1 66783U 25276DY  26196.13573131  .00003663  00000+0  30359-3 0  9990
2 66783  97.5237 265.8187 0014726  47.7053 312.5417 14.99354208 34384
LEMUR-2-TARTIFLETTE     
1 66784U 25276DZ  26196.13413113  .00003474  00000+0  28834-3 0  9999
2 66784  97.5234 265.8257 0013930  55.8396 304.4146 14.99339516 34380
LEMUR-2-VUKASIN         
1 66785U 25276EA  26196.17122191  .00002434  00000+0  19749-3 0  9997
2 66785  97.5225 266.2203 0003058  55.3107 304.8405 15.00546276 34346
LEMUR-2-HOTSPUR-TOM     
1 66786U 25276EB  26196.12852904  .00002961  00000+0  24710-3 0  9994
2 66786  97.5219 265.7945 0013794  47.1826 313.0554 14.99240600 34315
LEMUR-2-MYRA            
1 66787U 25276EC  26196.13644161  .00003327  00000+0  26713-3 0  9992
2 66787  97.5222 266.1060 0018687  54.4784 305.8180 15.00588809 34406
LEMUR-2 FIKRETDENGIZ    
1 67363U 26004A   26195.96608808  .00001876  00000+0  20756-3 0  9999
2 67363  97.8023 194.1018 0010209  56.4676 303.7515 14.88516251 27415
TWILIGHT-1 OBJECT B     
1 67364U 26004B   26195.93586616  .00000914  00000+0  10603-3 0  9991
2 67364  97.8075 194.0728 0009759  46.7281 313.4748 14.87793090 27415
LEMUR-2-MARIO-SOUSA     
1 67365U 26004C   26196.01319683  .00002612  00000+0  28514-3 0  9997
2 67365  97.7997 194.1431 0009855  57.5597 302.6572 14.88726718 27438
LEMUR-2-SONNENBLUME     
1 67367U 26004E   26195.94879041  .00001444  00000+0  16136-3 0  9998
2 67367  97.8000 194.0524 0009409  58.8207 301.3931 14.88452492 27424
LEMUR-2-WOBLER          
1 67368U 26004F   26196.00533420  .00002251  00000+0  24676-3 0  9990
2 67368  97.8047 194.2589 0009480  50.7409 309.4648 14.88696914 27437
LEMUR-2-GRAM-E-SUE      
1 67370U 26004H   26195.99745088  .00001251  00000+0  14017-3 0  9992
2 67370  97.7986 194.1169 0008614  61.4254 298.7829 14.88589007 27434
LEMUR-2-KATIE           
1 67387U 26004AA  26195.95463568  .00002798  00000+0  29400-3 0  9995
2 67387  97.8043 194.6255 0003584  34.1703 325.9745 14.90250586 27446
LEMUR-2-HCS-BAZUS       
1 67388U 26004AB  26195.95299271  .00001548  00000+0  16524-3 0  9999
2 67388  97.8038 194.6021 0003018  33.4040 326.7368 14.90260741 27444
