OBJECT_NAME,OBJECT_ID,EPOCH,MEAN_MOTION,ECCENTRICITY,INCLINATION,RA_OF_ASC_NODE,ARG_OF_PERICENTER,MEAN_ANOMALY,EPHEMERIS_TYPE,CLASSIFICATION_TYPE,NORAD_CAT_ID,ELEMENT_SET_NO,REV_AT_EPOCH,BSTAR,MEAN_MOTION_DOT,MEAN_MOTION_DDOT
LEMUR-2-STARLIGHT,2025-276DY,2026-07-15T03:15:27.185184,14.99354208,.0014726,97.5237,265.8187,47.7053,312.5417,0,U,66783,999,3438,.30359E-3,.3663E-4,0
LEMUR-2-TARTIFLETTE,2025-276DZ,2026-07-15T03:13:08.929632,14.99339516,.001393,97.5234,265.8257,55.8396,304.4146,0,U,66784,999,3438,.28834E-3,.3474E-4,0
LEMUR-2-VUKASIN,2025-276EA,2026-07-15T04:06:33.573024,15.00546276,.0003058,97.5225,266.2203,55.3107,304.8405,0,U,66785,999,3434,.19749E-3,.2434E-4,0
LEMUR-2-HOTSPUR-TOM,2025-276EB,2026-07-15T03:05:04.909056,14.99240600,.0013794,97.5219,265.7945,47.1826,313.0554,0,U,66786,999,3431,.2471E-3,.2961E-4,0
LEMUR-2-MYRA,2025-276EC,2026-07-15T03:16:28.555104,15.00588809,.0018687,97.5222,266.1060,54.4784,305.8180,0,U,66787,999,3440,.26713E-3,.3327E-4,0
LEMUR-2 FIKRETDENGIZ,2026-004A,2026-07-14T23:11:10.010112,14.88516251,.0010209,97.8023,194.1018,56.4676,303.7515,0,U,67363,999,2741,.20756E-3,.1876E-4,0
TWILIGHT-1 OBJECT B,2026-004B,2026-07-14T22:27:38.836224,14.87793090,.0009759,97.8075,194.0728,46.7281,313.4748,0,U,67364,999,2741,.10603E-3,.914E-5,0
LEMUR-2-MARIO-SOUSA,2026-004C,2026-07-15T00:19:00.206112,14.88726718,.0009855,97.7997,194.1431,57.5597,302.6572,0,U,67365,999,2743,.28514E-3,.2612E-4,0
LEMUR-2-SONNENBLUME,2026-004E,2026-07-14T22:46:15.491424,14.88452492,.0009409,97.8000,194.0524,58.8207,301.3931,0,U,67367,999,2742,.16136E-3,.1444E-4,0
LEMUR-2-WOBLER,2026-004F,2026-07-15T00:07:40.874880,14.88696914,.000948,97.8047,194.2589,50.7409,309.4648,0,U,67368,999,2743,.24676E-3,.2251E-4,0
LEMUR-2-GRAM-E-SUE,2026-004H,2026-07-14T23:56:19.756032,14.88589007,.0008614,97.7986,194.1169,61.4254,298.7829,0,U,67370,999,2743,.14017E-3,.1251E-4,0
LEMUR-2-KATIE,2026-004AA,2026-07-14T22:54:40.522752,14.90250586,.0003584,97.8043,194.6255,34.1703,325.9745,0,U,67387,999,2744,.294E-3,.2798E-4,0
LEMUR-2-HCS-BAZUS,2026-004AB,2026-07-14T22:52:18.570144,14.90260741,.0003018,97.8038,194.6021,33.4040,326.7368,0,U,67388,999,2744,.16524E-3,.1548E-4,0
